NORAD_CAT_ID,OBJECT_NAME,OBJECT_TYPE,EPOCH,MEAN_MOTION,ECCENTRICITY,INCLINATION,RA_OF_ASC_NODE,ARG_OF_PERICENTER,MEAN_ANOMALY,BSTAR,MEAN_MOTION_DOT,MEAN_MOTION_DDOT,TLE_LINE0,TLE_LINE1,TLE_LINE2,SEMIMAJOR_AXIS,PERIOD,APOGEE,PERIGEE,DECAYED
51974.0,STARLINK-3672,PAYLOAD,2023-04-16 06:18:58,15.05601886,0.0001055,53.1613,101.4453,88.2545,271.8566,-5.0223e-05,-1.011e-05,0.0,0 STARLINK-3672,1 51974U 22025U   23106.26317634 -.00001011  00000-0 -50223-4 0  9992,2 51974  53.1613 101.4453 0001055  88.2545 271.8566 15.05601886 62483,6927.796,95.643,550.392,548.93,0.0
51974.0,STARLINK-3672,PAYLOAD,2023-04-16 09:30:09,15.05594225,0.0001085,53.1586,100.8494,67.5332,292.5773,0.00010896,1.309e-05,0.0,0 STARLINK-3672,1 51974U 22025U   23106.39594476  .00001309  00000-0  10896-3 0  9996,2 51974  53.1586 100.8494 0001085  67.5332 292.5773 15.05594225 61417,6927.819,95.643,550.436,548.933,0.0
51974.0,STARLINK-3672,PAYLOAD,2023-04-17 04:37:15,15.05593317,0.0001396,53.1562,97.2881,95.6034,264.5115,-8.4065e-05,-1.504e-05,0.0,0 STARLINK-3672,1 51974U 22025U   23107.19254386 -.00001504  00000-0 -84065-4 0  9997,2 51974  53.1562  97.2881 0001396  95.6034 264.5115 15.05593317 62620,6927.822,95.643,550.654,548.72,0.0
51974.0,STARLINK-3672,PAYLOAD,2023-04-17 07:48:26,15.0558693,0.0001191,53.1556,96.695,75.2996,284.8126,4.7923e-06,-2.09e-06,0.0,0 STARLINK-3672,1 51974U 22025U   23107.32531248 -.00000209  00000-0  47923-5 0  9990,2 51974  53.1556  96.6950 0001191  75.2996 284.8126 15.05586930 61558,6927.842,95.644,550.532,548.882,0.0
51974.0,STARLINK-3672,PAYLOAD,2023-04-17 15:46:24,15.0558628,8.61e-05,53.1555,95.2104,86.9451,273.1637,5.7664e-05,5.61e-06,0.0,0 STARLINK-3672,1 51974U 22025U   23107.65722656  .00000561  00000-0  57664-4 0  9993,2 51974  53.1555  95.2104 0000861  86.9451 273.1637 15.05586280 61603,6927.844,95.644,550.305,549.112,0.0
51974.0,STARLINK-3672,PAYLOAD,2023-04-18 09:17:54,15.05591788,9.12e-05,53.1537,91.9421,88.5712,271.5382,0.00016874,2.181e-05,0.0,0 STARLINK-3672,1 51974U 22025U   23108.38743303  .00002181  00000-0  16874-3 0  9993,2 51974  53.1537  91.9421 0000912  88.5712 271.5382 15.05591788 61713,6927.827,95.643,550.324,549.06,0.0
51974.0,STARLINK-3672,PAYLOAD,2023-04-18 15:40:16,15.05592222,9.16e-05,53.1536,90.754,95.7512,264.3582,0.00012487,1.541e-05,0.0,0 STARLINK-3672,1 51974U 22025U   23108.65296551  .00001541  00000-0  12487-3 0  9996,2 51974  53.1536  90.7540 0000916  95.7512 264.3582 15.05592222 62844,6927.825,95.643,550.325,549.056,0.0
51974.0,STARLINK-3672,PAYLOAD,2023-04-19 07:36:10,15.05592749,0.0001026,53.1525,87.7838,96.2877,263.823,0.00015997,2.053e-05,0.0,0 STARLINK-3672,1 51974U 22025U   23109.31679360  .00002053  00000-0  15997-3 0  9991,2 51974  53.1525  87.7838 0001026  96.2877 263.8230 15.05592749 61859,6927.824,95.643,550.4,548.978,0.0
51974.0,STARLINK-3672,PAYLOAD,2023-04-19 15:34:08,15.05581648,8.99e-05,53.1499,86.3002,101.2743,258.8348,0.00035474,4.893e-05,0.0,0 STARLINK-3672,1 51974U 22025U   23109.64871410  .00004893  00000-0  35474-3 0  9993,2 51974  53.1499  86.3002 0000899 101.2743 258.8348 15.05581648 61909,6927.858,95.644,550.346,549.1,0.0
51974.0,STARLINK-3672,PAYLOAD,2023-04-20 04:18:52,15.05589942,9.26e-05,53.1499,83.9251,98.4765,261.6329,8.7039e-05,9.9e-06,0.0,0 STARLINK-3672,1 51974U 22025U   23110.17977438  .00000990  00000-0  87039-4 0  9999,2 51974  53.1499  83.9251 0000926  98.4765 261.6329 15.05589942 63076,6927.832,95.644,550.339,549.056,0.0
51974.0,STARLINK-3672,PAYLOAD,2023-04-20 07:30:03,15.05595581,0.0001012,53.1487,83.3307,110.3286,249.7813,4.4503e-05,3.7e-06,0.0,0 STARLINK-3672,1 51974U 22025U   23110.31253668  .00000370  00000-0  44503-4 0  9998,2 51974  53.1487  83.3307 0001012 110.3286 249.7813 15.05595581 62001,6927.815,95.643,550.381,548.979,0.0
51974.0,STARLINK-3672,PAYLOAD,2023-04-20 15:28:00,15.05588424,8.54e-05,53.1494,81.8463,90.1915,269.9173,2.0797e-05,2.4e-07,0.0,0 STARLINK-3672,1 51974U 22025U   23110.64445588  .00000024  00000-0  20797-4 0  9993,2 51974  53.1494  81.8463 0000854  90.1915 269.9173 15.05588424 62058,6927.837,95.644,550.294,549.11,0.0
51974.0,STARLINK-3672,PAYLOAD,2023-04-21 04:12:44,15.05586027,8.34e-05,53.1469,79.4693,95.567,264.5415,4.2865e-05,3.46e-06,0.0,0 STARLINK-3672,1 51974U 22025U   23111.17552015  .00000346  00000-0  42865-4 0  9993,2 51974  53.1469  79.4693 0000834  95.5670 264.5415 15.05586027 63220,6927.844,95.644,550.287,549.132,0.0
51974.0,STARLINK-3672,PAYLOAD,2023-04-21 15:21:52,15.05592479,0.0001028,53.1471,77.39,93.6523,266.4585,9.0227e-05,1.036e-05,0.0,0 STARLINK-3672,1 51974U 22025U   23111.64019491  .00001036  00000-0  90227-4 0  9993,2 51974  53.1471  77.3900 0001028  93.6523 266.4585 15.05592479 63297,6927.825,95.643,550.402,548.977,0.0
51974.0,STARLINK-3672,PAYLOAD,2023-04-23 05:36:04,15.05586512,9.83e-05,53.1445,70.2609,89.8361,270.2742,5.715e-05,5.54e-06,0.0,0 STARLINK-3672,1 51974U 22025U   23113.23338748  .00000554  00000-0  57150-4 0  9991,2 51974  53.1445  70.2609 0000983  89.8361 270.2742 15.05586512 63538,6927.843,95.644,550.389,549.027,0.0
51974.0,STARLINK-3672,PAYLOAD,2023-04-24 03:54:20,15.05594052,8.57e-05,53.1426,66.1038,97.8885,262.2202,6.1824e-05,6.22e-06,0.0,0 STARLINK-3672,1 51974U 22025U   23114.16274038  .00000622  00000-0  61824-4 0  9994,2 51974  53.1426  66.1038 0000857  97.8885 262.2202 15.05594052 63672,6927.82,95.643,550.278,549.091,0.0
51974.0,STARLINK-3672,PAYLOAD,2023-04-24 05:29:55,15.05606526,0.000106,53.1431,65.8058,96.6859,263.4252,0.00017743,2.309e-05,0.0,0 STARLINK-3672,1 51974U 22025U   23114.22911455  .00002309  00000-0  17743-3 0  9996,2 51974  53.1431  65.8058 0001060  96.6859 263.4252 15.05606526 63680,6927.782,95.643,550.381,548.912,0.0
51974.0,STARLINK-3672,PAYLOAD,2023-04-25 03:48:15,15.05540688,0.000155,53.141,61.6486,65.6714,294.4437,-0.00066662,-9.967e-05,0.0,0 STARLINK-3672,1 51974U 22025U   23115.15850702 -.00009967  00000-0 -66662-3 0  9999,2 51974  53.1410  61.6486 0001550  65.6714 294.4437 15.05540688 63827,6927.983,95.647,550.922,548.775,0.0
51974.0,STARLINK-3672,PAYLOAD,2023-04-25 06:59:26,15.05542305,0.0001432,53.1411,61.0536,73.9934,286.1213,-0.00061557,-9.226e-05,0.0,0 STARLINK-3672,1 51974U 22025U   23115.29127454 -.00009226  00000-0 -61557-3 0  9991,2 51974  53.1411  61.0536 0001432  73.9934 286.1213 15.05542305 62752,6927.979,95.647,550.836,548.851,0.0
51974.0,STARLINK-3672,PAYLOAD,2023-04-26 03:42:06,15.05589874,0.0001541,53.1404,57.1919,76.4622,283.6539,6.2314e-05,6.29e-06,0.0,0 STARLINK-3672,1 51974U 22025U   23116.15424573  .00000629  00000-0  62314-4 0  9998,2 51974  53.1404  57.1919 0001541  76.4622 283.6539 15.05589874 62887,6927.833,95.644,550.765,548.63,0.0
51974.0,STARLINK-3672,PAYLOAD,2023-04-27 05:11:33,15.05587051,0.0001537,53.1395,52.4403,66.386,293.7291,0.00066987,9.495e-05,0.0,0 STARLINK-3672,1 51974U 22025U   23117.21635504  .00009495  00000-0  66987-3 0  9993,2 51974  53.1395  52.4403 0001537  66.3860 293.7291 15.05587051 63040,6927.841,95.644,550.771,548.641,0.0
51974.0,STARLINK-3672,PAYLOAD,2023-04-28 01:54:14,15.05595967,0.0001187,53.1362,48.5796,99.0252,261.0872,-1.6902e-06,-3.04e-06,0.0,0 STARLINK-3672,1 51974U 22025U   23118.07934000 -.00000304  00000-0 -16902-5 0  9997,2 51974  53.1362  48.5796 0001187  99.0252 261.0872 15.05595967 64267,6927.814,95.643,550.501,548.857,0.0
51974.0,STARLINK-3672,PAYLOAD,2023-04-29 01:48:06,15.05602145,0.0001404,53.1353,44.1201,90.0065,270.1086,-0.00018118,-2.919e-05,0.0,0 STARLINK-3672,1 51974U 22025U   23119.07507653 -.00002919  00000-0 -18118-3 0  9991,2 51974  53.1353  44.1201 0001404  90.0065 270.1086 15.05602145 63326,6927.795,95.643,550.633,548.687,0.0
51974.0,STARLINK-3672,PAYLOAD,2023-04-29 19:19:36,15.05587389,0.0001355,53.1352,40.852,97.1617,262.9527,0.00012471,1.539e-05,0.0,0 STARLINK-3672,1 51974U 22025U   23119.80528349  .00001539  00000-0  12471-3 0  9998,2 51974  53.1352  40.8520 0001355  97.1617 262.9527 15.05587389 64522,6927.84,95.644,550.644,548.766,0.0
51974.0,STARLINK-3672,PAYLOAD,2023-04-30 03:17:34,15.05582391,0.0001256,53.1341,39.3677,94.9013,265.212,3.2225e-05,1.9e-06,0.0,0 STARLINK-3672,1 51974U 22025U   23120.13720469  .00000190  00000-0  32225-4 0  9995,2 51974  53.1341  39.3677 0001256  94.9013 265.2120 15.05582391 64579,6927.856,95.644,550.591,548.85,0.0
51974.0,STARLINK-3672,PAYLOAD,2023-05-01 03:11:26,15.05586955,0.0001342,53.133,34.9126,96.3024,263.8119,3.7681e-05,2.7e-06,0.0,0 STARLINK-3672,1 51974U 22025U   23121.13294778  .00000270  00000-0  37681-4 0  9995,2 51974  53.1330  34.9126 0001342  96.3024 263.8119 15.05586955 63639,6927.842,95.644,550.636,548.777,0.0
51974.0,STARLINK-3672,PAYLOAD,2023-05-01 22:18:32,15.05588476,0.0001376,53.1323,31.3472,93.4849,266.6298,0.00013663,1.712e-05,0.0,0 STARLINK-3672,1 51974U 22025U   23121.92953763  .00001712  00000-0  13663-3 0  9993,2 51974  53.1323  31.3472 0001376  93.4849 266.6298 15.05588476 64849,6927.837,95.644,550.655,548.749,0.0
51974.0,STARLINK-3672,PAYLOAD,2023-05-02 03:05:18,15.05588875,0.0001302,53.1313,30.4551,91.7485,268.3654,0.00013169,1.64e-05,0.0,0 STARLINK-3672,1 51974U 22025U   23122.12868638  .00001640  00000-0  13169-3 0  9993,2 51974  53.1313  30.4551 0001302  91.7485 268.3654 15.05588875 63782,6927.836,95.644,550.603,548.799,0.0
51974.0,STARLINK-3672,PAYLOAD,2023-05-03 02:59:10,15.05587066,0.0001258,53.1302,25.9965,91.5198,268.5936,3.9488e-05,2.96e-06,0.0,0 STARLINK-3672,1 51974U 22025U   23123.12443269  .00000296  00000-0  39488-4 0  9992,2 51974  53.1302  25.9965 0001258  91.5198 268.5936 15.05587066 65022,6927.841,95.644,550.578,548.835,0.0
51974.0,STARLINK-3672,PAYLOAD,2023-05-03 22:06:16,15.0559268,0.0001263,53.13,22.4313,90.5461,269.5673,4.5526e-05,3.84e-06,0.0,0 STARLINK-3672,1 51974U 22025U   23123.92102114  .00000384  00000-0  45526-4 0  9999,2 51974  53.1300  22.4313 0001263  90.5461 269.5673 15.05592680 64056,6927.824,95.643,550.564,548.814,0.0
